[{"OBJECT_NAME":"OPTOS","OBJECT_ID":"2013-066E","EPOCH":"2026-03-09T15:19:15.595680","MEAN_MOTION":14.72053406,"ECCENTRICITY":0.01165171,"INCLINATION":97.6953,"RA_OF_ASC_NODE":298.8825,"ARG_OF_PERICENTER":333.077,"MEAN_ANOMALY":26.4421,"EPHEMERIS_TYPE":0,"CLASSIFICATION_TYPE":"U","NORAD_CAT_ID":39420,"ELEMENT_SET_NO":999,"REV_AT_EPOCH":65687,"BSTAR":0.00029036666,"MEAN_MOTION_DOT":1.977e-5,"MEAN_MOTION_DDOT":0},{"OBJECT_NAME":"HUBBLE 7","OBJECT_ID":"2025-135BS","EPOCH":"2026-03-09T22:34:38.564832","MEAN_MOTION":14.93574527,"ECCENTRICITY":0.00025753,"INCLINATION":97.7624,"RA_OF_ASC_NODE":184.774,"ARG_OF_PERICENTER":333.1877,"MEAN_ANOMALY":26.921,"EPHEMERIS_TYPE":0,"CLASSIFICATION_TYPE":"U","NORAD_CAT_ID":64592,"ELEMENT_SET_NO":999,"REV_AT_EPOCH":3909,"BSTAR":0.00045783206,"MEAN_MOTION_DOT":4.773e-5,"MEAN_MOTION_DDOT":0}]
